{"type":"FeatureCollection","features":[
{"type":"Feature","properties":{"axis":"A","zug":"Zug C","station_m":0,"label_coordinates":[13.726825754,51.044918863]},"geometry":{"type":"LineString","coordinates":[[13.726844861,51.044903142],[13.726969053,51.044800956]]}},
{"type":"Feature","properties":{"axis":"B","zug":"Zug C","station_m":30,"label_coordinates":[13.726484777,51.044755056]},"geometry":{"type":"LineString","coordinates":[[13.726503884,51.044739335],[13.726628075,51.044637149]]}},
{"type":"Feature","properties":{"axis":"C","zug":"Zug C","station_m":63.5,"label_coordinates":[13.726104023,51.044572138]},"geometry":{"type":"LineString","coordinates":[[13.726123129,51.044556417],[13.726247320,51.044454230]]}},
{"type":"Feature","properties":{"axis":"D","zug":"Zug C","station_m":100.5,"label_coordinates":[13.725683491,51.044370106]},"geometry":{"type":"LineString","coordinates":[[13.725702597,51.044354385],[13.725826788,51.044252199]]}},
{"type":"Feature","properties":{"axis":"E","zug":"Zug C","station_m":134,"label_coordinates":[13.725302743,51.044187185]},"geometry":{"type":"LineString","coordinates":[[13.725321849,51.044171464],[13.725446039,51.044069278]]}},
{"type":"Feature","properties":{"axis":"F","zug":"Zug C","station_m":167.5,"label_coordinates":[13.724921997,51.044004262]},"geometry":{"type":"LineString","coordinates":[[13.724941103,51.043988541],[13.725065293,51.043886355]]}},
{"type":"Feature","properties":{"axis":"G","zug":"Zug C","station_m":201,"label_coordinates":[13.724541255,51.043821338]},"geometry":{"type":"LineString","coordinates":[[13.724560361,51.043805617],[13.724684550,51.043703431]]}},
{"type":"Feature","properties":{"axis":"H","zug":"Zug C","station_m":234.5,"label_coordinates":[13.724160515,51.043638413]},"geometry":{"type":"LineString","coordinates":[[13.724179621,51.043622692],[13.724303810,51.043520506]]}},
{"type":"Feature","properties":{"axis":"J","zug":"Zug C","station_m":273,"label_coordinates":[13.723722953,51.043428184]},"geometry":{"type":"LineString","coordinates":[[13.723742059,51.043412463],[13.723866247,51.043310277]]}},
{"type":"Feature","properties":{"axis":"K","zug":"Zug C","station_m":308.5,"label_coordinates":[13.723319490,51.043234335]},"geometry":{"type":"LineString","coordinates":[[13.723338595,51.043218614],[13.723462783,51.043116428]]}},
{"type":"Feature","properties":{"axis":"L","zug":"Zug C","station_m":325.5,"label_coordinates":[13.723126283,51.043141506]},"geometry":{"type":"LineString","coordinates":[[13.723145389,51.043125785],[13.723269576,51.043023599]]}},
{"type":"Feature","properties":{"axis":"A","zug":"Zug A","station_m":0,"label_coordinates":[13.727336204,51.044643410]},"geometry":{"type":"LineString","coordinates":[[13.727317158,51.044659160],[13.727193359,51.044761534]]}},
{"type":"Feature","properties":{"axis":"B","zug":"Zug A","station_m":30,"label_coordinates":[13.726994601,51.044480121]},"geometry":{"type":"LineString","coordinates":[[13.726975555,51.044495871],[13.726851756,51.044598245]]}},
{"type":"Feature","properties":{"axis":"C","zug":"Zug A","station_m":63.5,"label_coordinates":[13.726613146,51.044297781]},"geometry":{"type":"LineString","coordinates":[[13.726594100,51.044313531],[13.726470302,51.044415905]]}},
{"type":"Feature","properties":{"axis":"D","zug":"Zug A","station_m":100.5,"label_coordinates":[13.726191842,51.044096389]},"geometry":{"type":"LineString","coordinates":[[13.726172796,51.044112139],[13.726048999,51.044214513]]}},
{"type":"Feature","properties":{"axis":"E","zug":"Zug A","station_m":134,"label_coordinates":[13.725810394,51.043914046]},"geometry":{"type":"LineString","coordinates":[[13.725791348,51.043929796],[13.725667551,51.044032170]]}},
{"type":"Feature","properties":{"axis":"F","zug":"Zug A","station_m":167.5,"label_coordinates":[13.725428948,51.043731702]},"geometry":{"type":"LineString","coordinates":[[13.725409903,51.043747452],[13.725286106,51.043849826]]}},
{"type":"Feature","properties":{"axis":"G","zug":"Zug A","station_m":201,"label_coordinates":[13.725047506,51.043549357]},"geometry":{"type":"LineString","coordinates":[[13.725028461,51.043565107],[13.724904665,51.043667481]]}},
{"type":"Feature","properties":{"axis":"H","zug":"Zug A","station_m":234.5,"label_coordinates":[13.724666067,51.043367010]},"geometry":{"type":"LineString","coordinates":[[13.724647022,51.043382760],[13.724523226,51.043485135]]}},
{"type":"Feature","properties":{"axis":"J","zug":"Zug A","station_m":273,"label_coordinates":[13.724227701,51.043157446]},"geometry":{"type":"LineString","coordinates":[[13.724208655,51.043173196],[13.724084860,51.043275571]]}},
{"type":"Feature","properties":{"axis":"K","zug":"Zug A","station_m":308.5,"label_coordinates":[13.723823496,51.042964211]},"geometry":{"type":"LineString","coordinates":[[13.723804451,51.042979961],[13.723680656,51.043082335]]}},
{"type":"Feature","properties":{"axis":"L","zug":"Zug A","station_m":325.5,"label_coordinates":[13.723629934,51.042871675]},"geometry":{"type":"LineString","coordinates":[[13.723610889,51.042887425],[13.723487095,51.042989799]]}}
]}
