{
  "type": "FeatureCollection",
  "features": [
    {"type":"Feature","properties":{"axis":"A","zug":"Zug C","station_m":0.0,"bridge_width_m":14.3,"label_coordinates":[13.726825754,51.044918863],"source":"Refpunkt 4 to 1; axis A offset 1.0 m"},"geometry":{"type":"LineString","coordinates":[[13.726844861,51.044903142],[13.726969053,51.044800956]]}},
    {"type":"Feature","properties":{"axis":"B","zug":"Zug C","station_m":30.0,"bridge_width_m":14.3,"label_coordinates":[13.726484777,51.044755056],"source":"Refpunkt 4 to 1; axis A offset 1.0 m"},"geometry":{"type":"LineString","coordinates":[[13.726503884,51.044739335],[13.726628075,51.044637149]]}},
    {"type":"Feature","properties":{"axis":"C","zug":"Zug C","station_m":61.5,"bridge_width_m":14.3,"label_coordinates":[13.726126754,51.044583058],"source":"Refpunkt 4 to 1; axis A offset 1.0 m"},"geometry":{"type":"LineString","coordinates":[[13.726145860,51.044567337],[13.726270051,51.044465151]]}},
    {"type":"Feature","properties":{"axis":"D","zug":"Zug C","station_m":98.5,"bridge_width_m":14.3,"label_coordinates":[13.725706222,51.044381027],"source":"Refpunkt 4 to 1; axis A offset 1.0 m"},"geometry":{"type":"LineString","coordinates":[[13.725725329,51.044365306],[13.725849519,51.044263120]]}},
    {"type":"Feature","properties":{"axis":"E","zug":"Zug C","station_m":132.0,"bridge_width_m":14.3,"label_coordinates":[13.725325474,51.044198106],"source":"Refpunkt 4 to 1; axis A offset 1.0 m"},"geometry":{"type":"LineString","coordinates":[[13.725344580,51.044182385],[13.725468770,51.044080198]]}},
    {"type":"Feature","properties":{"axis":"F","zug":"Zug C","station_m":165.5,"bridge_width_m":14.3,"label_coordinates":[13.724944728,51.044015183],"source":"Refpunkt 4 to 1; axis A offset 1.0 m"},"geometry":{"type":"LineString","coordinates":[[13.724963834,51.043999462],[13.725088024,51.043897276]]}},
    {"type":"Feature","properties":{"axis":"G","zug":"Zug C","station_m":199.0,"bridge_width_m":14.3,"label_coordinates":[13.724563985,51.043832259],"source":"Refpunkt 4 to 1; axis A offset 1.0 m"},"geometry":{"type":"LineString","coordinates":[[13.724583092,51.043816538],[13.724707281,51.043714352]]}},
    {"type":"Feature","properties":{"axis":"H","zug":"Zug C","station_m":232.5,"bridge_width_m":14.3,"label_coordinates":[13.724183246,51.043649334],"source":"Refpunkt 4 to 1; axis A offset 1.0 m"},"geometry":{"type":"LineString","coordinates":[[13.724202352,51.043633613],[13.724326540,51.043531427]]}},
    {"type":"Feature","properties":{"axis":"J","zug":"Zug C","station_m":271.0,"bridge_width_m":14.3,"label_coordinates":[13.723745683,51.043439105],"source":"Refpunkt 4 to 1; axis A offset 1.0 m"},"geometry":{"type":"LineString","coordinates":[[13.723764789,51.043423384],[13.723888977,51.043321198]]}},
    {"type":"Feature","properties":{"axis":"K","zug":"Zug C","station_m":306.5,"bridge_width_m":14.3,"label_coordinates":[13.723342220,51.043245257],"source":"Refpunkt 4 to 1; axis A offset 1.0 m"},"geometry":{"type":"LineString","coordinates":[[13.723361326,51.043229536],[13.723485513,51.043127349]]}},
    {"type":"Feature","properties":{"axis":"L","zug":"Zug C","station_m":323.5,"bridge_width_m":14.3,"label_coordinates":[13.723149013,51.043152427],"source":"Refpunkt 4 to 1; axis A offset 1.0 m"},"geometry":{"type":"LineString","coordinates":[[13.723168119,51.043136706],[13.723292306,51.043034520]]}},

    {"type":"Feature","properties":{"axis":"A","zug":"Zug A","station_m":0.0,"bridge_width_m":14.3,"label_coordinates":[13.727336204,51.044643410],"source":"Refpunkt 3 to 2; axis A offset 1.0 m"},"geometry":{"type":"LineString","coordinates":[[13.727317158,51.044659160],[13.727193359,51.044761534]]}},
    {"type":"Feature","properties":{"axis":"B","zug":"Zug A","station_m":30.0,"bridge_width_m":14.3,"label_coordinates":[13.726994601,51.044480121],"source":"Refpunkt 3 to 2; axis A offset 1.0 m"},"geometry":{"type":"LineString","coordinates":[[13.726975555,51.044495871],[13.726851756,51.044598245]]}},
    {"type":"Feature","properties":{"axis":"C","zug":"Zug A","station_m":61.5,"bridge_width_m":14.3,"label_coordinates":[13.726635919,51.044308667],"source":"Refpunkt 3 to 2; axis A offset 1.0 m"},"geometry":{"type":"LineString","coordinates":[[13.726616874,51.044324417],[13.726493076,51.044426791]]}},
    {"type":"Feature","properties":{"axis":"D","zug":"Zug A","station_m":98.5,"bridge_width_m":14.3,"label_coordinates":[13.726214615,51.044107275],"source":"Refpunkt 3 to 2; axis A offset 1.0 m"},"geometry":{"type":"LineString","coordinates":[[13.726195569,51.044123025],[13.726071772,51.044225399]]}},
    {"type":"Feature","properties":{"axis":"E","zug":"Zug A","station_m":132.0,"bridge_width_m":14.3,"label_coordinates":[13.725833167,51.043924932],"source":"Refpunkt 3 to 2; axis A offset 1.0 m"},"geometry":{"type":"LineString","coordinates":[[13.725814121,51.043940682],[13.725690324,51.044043057]]}},
    {"type":"Feature","properties":{"axis":"F","zug":"Zug A","station_m":165.5,"bridge_width_m":14.3,"label_coordinates":[13.725451721,51.043742588],"source":"Refpunkt 3 to 2; axis A offset 1.0 m"},"geometry":{"type":"LineString","coordinates":[[13.725432676,51.043758338],[13.725308879,51.043860713]]}},
    {"type":"Feature","properties":{"axis":"G","zug":"Zug A","station_m":199.0,"bridge_width_m":14.3,"label_coordinates":[13.725070279,51.043560243],"source":"Refpunkt 3 to 2; axis A offset 1.0 m"},"geometry":{"type":"LineString","coordinates":[[13.725051233,51.043575993],[13.724927437,51.043678368]]}},
    {"type":"Feature","properties":{"axis":"H","zug":"Zug A","station_m":232.5,"bridge_width_m":14.3,"label_coordinates":[13.724688840,51.043377897],"source":"Refpunkt 3 to 2; axis A offset 1.0 m"},"geometry":{"type":"LineString","coordinates":[[13.724669794,51.043393647],[13.724545999,51.043496021]]}},
    {"type":"Feature","properties":{"axis":"J","zug":"Zug A","station_m":271.0,"bridge_width_m":14.3,"label_coordinates":[13.724250473,51.043168333],"source":"Refpunkt 3 to 2; axis A offset 1.0 m"},"geometry":{"type":"LineString","coordinates":[[13.724231428,51.043184083],[13.724107633,51.043286457]]}},
    {"type":"Feature","properties":{"axis":"K","zug":"Zug A","station_m":306.5,"bridge_width_m":14.3,"label_coordinates":[13.723846268,51.042975097],"source":"Refpunkt 3 to 2; axis A offset 1.0 m"},"geometry":{"type":"LineString","coordinates":[[13.723827223,51.042990847],[13.723703428,51.043093222]]}},
    {"type":"Feature","properties":{"axis":"L","zug":"Zug A","station_m":323.5,"bridge_width_m":14.3,"label_coordinates":[13.723652706,51.042882561],"source":"Refpunkt 3 to 2; axis A offset 1.0 m"},"geometry":{"type":"LineString","coordinates":[[13.723633661,51.042898311],[13.723509867,51.043000686]]}}
  ]
}
