{
  "type": "FeatureCollection",
  "name": "Waren Herrenseebruecke Achsen 0-13",
  "crs_source": "DB_REF2016 zone 4 / EPSG:5684",
  "crs_target": "WGS84 / EPSG:4326",
  "features": [
    {"type":"Feature","properties":{"axis":"0","station_m":0.0,"plan_station_m":0.0,"bridge_width_m":14.688,"label_coordinates":[12.684825476,53.518705747],"dbref_center":[4545536.763,5932125.326],"source":"30G0196100_Herrenseebruecke.dxf · EPSG:5684"},"geometry":{"type":"LineString","coordinates":[[12.684870369,53.518708832],[12.685090344,53.518723952]]}},
    {"type":"Feature","properties":{"axis":"1","station_m":21.286,"plan_station_m":21.0,"bridge_width_m":14.783,"label_coordinates":[12.684856736,53.518519636],"dbref_center":[4545539.150,5932104.174],"source":"30G0196100_Herrenseebruecke.dxf · EPSG:5684"},"geometry":{"type":"LineString","coordinates":[[12.684902108,53.518521524],[12.685124432,53.518530775]]}},
    {"type":"Feature","properties":{"axis":"2","station_m":42.038,"plan_station_m":42.0,"bridge_width_m":14.946,"label_coordinates":[12.684868163,53.518338840],"dbref_center":[4545540.246,5932083.451],"source":"30G0196100_Herrenseebruecke.dxf · EPSG:5684"},"geometry":{"type":"LineString","coordinates":[[12.684914144,53.518339137],[12.685139452,53.518340595]]}},
    {"type":"Feature","properties":{"axis":"3","station_m":61.754,"plan_station_m":63.0,"bridge_width_m":14.753,"label_coordinates":[12.684863228,53.518170408],"dbref_center":[4545539.939,5932063.737],"source":"30G0196100_Herrenseebruecke.dxf · EPSG:5684"},"geometry":{"type":"LineString","coordinates":[[12.684908466,53.518168197],[12.685130132,53.518157362]]}},
    {"type":"Feature","properties":{"axis":"4","station_m":84.173,"plan_station_m":84.0,"bridge_width_m":14.812,"label_coordinates":[12.684826334,53.517978413],"dbref_center":[4545537.633,5932041.438],"source":"30G0196100_Herrenseebruecke.dxf · EPSG:5684"},"geometry":{"type":"LineString","coordinates":[[12.684871255,53.517973839],[12.685091364,53.517951424]]}},
    {"type":"Feature","properties":{"axis":"5","station_m":104.911,"plan_station_m":105.0,"bridge_width_m":14.822,"label_coordinates":[12.684766948,53.517802714],"dbref_center":[4545533.734,5932021.070],"source":"30G0196100_Herrenseebruecke.dxf · EPSG:5684"},"geometry":{"type":"LineString","coordinates":[[12.684811188,53.517796122],[12.685027964,53.517763820]]}},
    {"type":"Feature","properties":{"axis":"6","station_m":123.204,"plan_station_m":126.0,"bridge_width_m":14.721,"label_coordinates":[12.684696823,53.517652525],"dbref_center":[4545528.914,5932003.423],"source":"30G0196100_Herrenseebruecke.dxf · EPSG:5684"},"geometry":{"type":"LineString","coordinates":[[12.684739584,53.517643631],[12.684949117,53.517600050]]}},
    {"type":"Feature","properties":{"axis":"7","station_m":145.731,"plan_station_m":147.0,"bridge_width_m":14.739,"label_coordinates":[12.684581615,53.517469708],"dbref_center":[4545521.197,5931982.259],"source":"30G0196100_Herrenseebruecke.dxf · EPSG:5684"},"geometry":{"type":"LineString","coordinates":[[12.684623165,53.517458883],[12.684826759,53.517405841]]}},
    {"type":"Feature","properties":{"axis":"8","station_m":170.879,"plan_station_m":172.0,"bridge_width_m":14.717,"label_coordinates":[12.684421228,53.517275551],"dbref_center":[4545510.287,5931959.601],"source":"30G0196100_Herrenseebruecke.dxf · EPSG:5684"},"geometry":{"type":"LineString","coordinates":[[12.684460644,53.517262271],[12.684653782,53.517197198]]}},
    {"type":"Feature","properties":{"axis":"9","station_m":192.542,"plan_station_m":193.0,"bridge_width_m":14.783,"label_coordinates":[12.684258520,53.517114717],"dbref_center":[4545499.315,5931940.922],"source":"30G0196100_Herrenseebruecke.dxf · EPSG:5684"},"geometry":{"type":"LineString","coordinates":[[12.684296369,53.517099687],[12.684481830,53.517026039]]}},
    {"type":"Feature","properties":{"axis":"10","station_m":217.735,"plan_station_m":218.0,"bridge_width_m":14.674,"label_coordinates":[12.684038813,53.516941227],"dbref_center":[4545484.278,5931920.708],"source":"30G0196100_Herrenseebruecke.dxf · EPSG:5684"},"geometry":{"type":"LineString","coordinates":[[12.684073796,53.516924220],[12.684245213,53.516840883]]}},
    {"type":"Feature","properties":{"axis":"11","station_m":238.759,"plan_station_m":239.0,"bridge_width_m":14.704,"label_coordinates":[12.683837089,53.516807812],"dbref_center":[4545470.370,5931904.942],"source":"30G0196100_Herrenseebruecke.dxf · EPSG:5684"},"geometry":{"type":"LineString","coordinates":[[12.683869109,53.516788767],[12.684026009,53.516695444]]}},
    {"type":"Feature","properties":{"axis":"12","station_m":259.453,"plan_station_m":260.0,"bridge_width_m":14.610,"label_coordinates":[12.683619544,53.516685930],"dbref_center":[4545455.377,5931890.679],"source":"30G0196100_Herrenseebruecke.dxf · EPSG:5684"},"geometry":{"type":"LineString","coordinates":[[12.683648511,53.516665446],[12.683790447,53.516565071]]}},
    {"type":"Feature","properties":{"axis":"13","station_m":281.270,"plan_station_m":281.0,"bridge_width_m":14.716,"label_coordinates":[12.683371550,53.516569496],"dbref_center":[4545438.410,5931876.963],"source":"30G0196100_Herrenseebruecke.dxf · EPSG:5684"},"geometry":{"type":"LineString","coordinates":[[12.683397691,53.516547465],[12.683525782,53.516439511]]}}
  ]
}
