{
  "type": "FeatureCollection",
  "name": "Waren Herrenseebruecke Achsen 0-13",
  "crs_source": "DB_REF2016 zone 4 / EPSG:5684",
  "crs_target": "WGS84 / EPSG:4326",
  "features": [
    {
      "type": "Feature",
      "properties": {
        "axis": "0",
        "station_m": 0.0,
        "plan_station_m": 0.0,
        "bridge_width_m": 14.688,
        "label_coordinates": [
          12.684825007833,
          53.518707613333
        ],
        "dbref_center": [
          4545536.763,
          5932125.326
        ],
        "source": "30G0196100_Herrenseebruecke.dxf · EPSG:5684"
      },
      "geometry": {
        "type": "LineString",
        "coordinates": [
          [
            12.684869900833,
            53.518710698333
          ],
          [
            12.685089875833,
            53.518725818333
          ]
        ]
      }
    },
    {
      "type": "Feature",
      "properties": {
        "axis": "1",
        "station_m": 21.286,
        "plan_station_m": 21.0,
        "bridge_width_m": 14.783,
        "label_coordinates": [
          12.684857192368,
          53.518522432973
        ],
        "dbref_center": [
          4545539.15,
          5932104.174
        ],
        "source": "30G0196100_Herrenseebruecke.dxf · EPSG:5684"
      },
      "geometry": {
        "type": "LineString",
        "coordinates": [
          [
            12.684902564368,
            53.518524320973
          ],
          [
            12.685124888368,
            53.518533571973
          ]
        ]
      }
    },
    {
      "type": "Feature",
      "properties": {
        "axis": "2",
        "station_m": 42.038,
        "plan_station_m": 42.0,
        "bridge_width_m": 14.946,
        "label_coordinates": [
          12.68486952071,
          53.518342544266
        ],
        "dbref_center": [
          4545540.246,
          5932083.451
        ],
        "source": "30G0196100_Herrenseebruecke.dxf · EPSG:5684"
      },
      "geometry": {
        "type": "LineString",
        "coordinates": [
          [
            12.68491550171,
            53.518342841266
          ],
          [
            12.68514080971,
            53.518344299266
          ]
        ]
      }
    },
    {
      "type": "Feature",
      "properties": {
        "axis": "3",
        "station_m": 61.754,
        "plan_station_m": 63.0,
        "bridge_width_m": 14.753,
        "label_coordinates": [
          12.684865442053,
          53.518174974264
        ],
        "dbref_center": [
          4545539.939,
          5932063.737
        ],
        "source": "30G0196100_Herrenseebruecke.dxf · EPSG:5684"
      },
      "geometry": {
        "type": "LineString",
        "coordinates": [
          [
            12.684910680053,
            53.518172763264
          ],
          [
            12.685132346053,
            53.518161928264
          ]
        ]
      }
    },
    {
      "type": "Feature",
      "properties": {
        "axis": "4",
        "station_m": 84.173,
        "plan_station_m": 84.0,
        "bridge_width_m": 14.812,
        "label_coordinates": [
          12.684829521799,
          53.517983959439
        ],
        "dbref_center": [
          4545537.633,
          5932041.438
        ],
        "source": "30G0196100_Herrenseebruecke.dxf · EPSG:5684"
      },
      "geometry": {
        "type": "LineString",
        "coordinates": [
          [
            12.684874442799,
            53.517979385439
          ],
          [
            12.685094551799,
            53.517956970439
          ]
        ]
      }
    },
    {
      "type": "Feature",
      "properties": {
        "axis": "5",
        "station_m": 104.911,
        "plan_station_m": 105.0,
        "bridge_width_m": 14.822,
        "label_coordinates": [
          12.684771036532,
          53.51780916712
        ],
        "dbref_center": [
          4545533.734,
          5932021.07
        ],
        "source": "30G0196100_Herrenseebruecke.dxf · EPSG:5684"
      },
      "geometry": {
        "type": "LineString",
        "coordinates": [
          [
            12.684815276532,
            53.51780257512
          ],
          [
            12.685032052532,
            53.51777027312
          ]
        ]
      }
    },
    {
      "type": "Feature",
      "properties": {
        "axis": "6",
        "station_m": 123.204,
        "plan_station_m": 126.0,
        "bridge_width_m": 14.721,
        "label_coordinates": [
          12.68470170607,
          53.517659777904
        ],
        "dbref_center": [
          4545528.914,
          5932003.423
        ],
        "source": "30G0196100_Herrenseebruecke.dxf · EPSG:5684"
      },
      "geometry": {
        "type": "LineString",
        "coordinates": [
          [
            12.68474446707,
            53.517650883904
          ],
          [
            12.68495400007,
            53.517607302904
          ]
        ]
      }
    },
    {
      "type": "Feature",
      "properties": {
        "axis": "7",
        "station_m": 145.731,
        "plan_station_m": 147.0,
        "bridge_width_m": 14.739,
        "label_coordinates": [
          12.684587476506,
          53.517477945801
        ],
        "dbref_center": [
          4545521.197,
          5931982.259
        ],
        "source": "30G0196100_Herrenseebruecke.dxf · EPSG:5684"
      },
      "geometry": {
        "type": "LineString",
        "coordinates": [
          [
            12.684629026506,
            53.517467120801
          ],
          [
            12.684832620506,
            53.517414078801
          ]
        ]
      }
    },
    {
      "type": "Feature",
      "properties": {
        "axis": "8",
        "station_m": 170.879,
        "plan_station_m": 172.0,
        "bridge_width_m": 14.717,
        "label_coordinates": [
          12.684428181783,
          53.51728488829
        ],
        "dbref_center": [
          4545510.287,
          5931959.601
        ],
        "source": "30G0196100_Herrenseebruecke.dxf · EPSG:5684"
      },
      "geometry": {
        "type": "LineString",
        "coordinates": [
          [
            12.684467597783,
            53.51727160829
          ],
          [
            12.684660735783,
            53.51720653529
          ]
        ]
      }
    },
    {
      "type": "Feature",
      "properties": {
        "axis": "9",
        "station_m": 192.542,
        "plan_station_m": 193.0,
        "bridge_width_m": 14.783,
        "label_coordinates": [
          12.684266414693,
          53.517125001413
        ],
        "dbref_center": [
          4545499.315,
          5931940.922
        ],
        "source": "30G0196100_Herrenseebruecke.dxf · EPSG:5684"
      },
      "geometry": {
        "type": "LineString",
        "coordinates": [
          [
            12.684304263693,
            53.517109971413
          ],
          [
            12.684489724693,
            53.517036323413
          ]
        ]
      }
    },
    {
      "type": "Feature",
      "properties": {
        "axis": "10",
        "station_m": 217.735,
        "plan_station_m": 218.0,
        "bridge_width_m": 14.674,
        "label_coordinates": [
          12.684047801924,
          53.516952612869
        ],
        "dbref_center": [
          4545484.278,
          5931920.708
        ],
        "source": "30G0196100_Herrenseebruecke.dxf · EPSG:5684"
      },
      "geometry": {
        "type": "LineString",
        "coordinates": [
          [
            12.684082784924,
            53.516935605869
          ],
          [
            12.684254201924,
            53.516852268869
          ]
        ]
      }
    },
    {
      "type": "Feature",
      "properties": {
        "axis": "11",
        "station_m": 238.759,
        "plan_station_m": 239.0,
        "bridge_width_m": 14.704,
        "label_coordinates": [
          12.683846991079,
          53.516820117054
        ],
        "dbref_center": [
          4545470.37,
          5931904.942
        ],
        "source": "30G0196100_Herrenseebruecke.dxf · EPSG:5684"
      },
      "geometry": {
        "type": "LineString",
        "coordinates": [
          [
            12.683879011079,
            53.516801072054
          ],
          [
            12.684035911079,
            53.516707749054
          ]
        ]
      }
    },
    {
      "type": "Feature",
      "properties": {
        "axis": "12",
        "station_m": 259.453,
        "plan_station_m": 260.0,
        "bridge_width_m": 14.61,
        "label_coordinates": [
          12.683630344902,
          53.516699139811
        ],
        "dbref_center": [
          4545455.377,
          5931890.679
        ],
        "source": "30G0196100_Herrenseebruecke.dxf · EPSG:5684"
      },
      "geometry": {
        "type": "LineString",
        "coordinates": [
          [
            12.683659311902,
            53.516678655811
          ],
          [
            12.683801247902,
            53.516578280811
          ]
        ]
      }
    },
    {
      "type": "Feature",
      "properties": {
        "axis": "13",
        "station_m": 281.27,
        "plan_station_m": 281.0,
        "bridge_width_m": 14.716,
        "label_coordinates": [
          12.6833832985,
          53.516583659667
        ],
        "dbref_center": [
          4545438.41,
          5931876.963
        ],
        "source": "30G0196100_Herrenseebruecke.dxf · EPSG:5684"
      },
      "geometry": {
        "type": "LineString",
        "coordinates": [
          [
            12.6834094395,
            53.516561628667
          ],
          [
            12.6835375305,
            53.516453674667
          ]
        ]
      }
    }
  ]
}
